{
  "type": "FeatureCollection",
  "features": [
    {
      "type": "Feature",
      "properties": {
        "norad_id": 40894,
        "name": "GAOFEN-9 01",
        "group": "resource",
        "lat": 49.74377161038171,
        "lon": -151.15682080891696,
        "alt_km": 612.1583104212195,
        "timestamp": "2025-12-06T11:28:10.686467+00:00",
        "meta_object_name": "GAOFEN-9 01",
        "meta_object_id": "2015-047A",
        "meta_epoch": "2025-12-05T23:32:59.330400",
        "meta_mean_motion": 14.82395901,
        "meta_eccentricity": 0.00288345,
        "meta_inclination": 97.6548,
        "meta_ra_of_asc_node": 19.2287,
        "meta_arg_of_pericenter": 55.6704,
        "meta_mean_anomaly": 304.7233,
        "meta_ephemeris_type": 0,
        "meta_classification_type": "U",
        "meta_norad_cat_id": 40894,
        "meta_element_set_no": 999,
        "meta_rev_at_epoch": 55156,
        "meta_bstar": 0.00029902312,
        "meta_mean_motion_dot": 2.361e-05,
        "meta_mean_motion_ddot": 0,
        "tle_line1": "1 40894U 15047A   25339.98124225  .00002361  00000+0  29902-3 0  9993",
        "tle_line2": "2 40894  97.6548  19.2287 0028834  55.6704 304.7233 14.82395901551563"
      },
      "geometry": {
        "type": "Point",
        "coordinates": [
          -151.15682080891696,
          49.74377161038171
        ]
      }
    },
    {
      "type": "Feature",
      "properties": {
        "norad_id": 41026,
        "name": "YAOGAN-28",
        "group": "resource",
        "lat": 57.59994411843981,
        "lon": 106.82593514593233,
        "alt_km": 487.45385747170167,
        "timestamp": "2025-12-06T11:28:10.686477+00:00",
        "meta_object_name": "YAOGAN-28",
        "meta_object_id": "2015-064A",
        "meta_epoch": "2025-12-05T22:36:33.422400",
        "meta_mean_motion": 15.24177586,
        "meta_eccentricity": 0.0012026,
        "meta_inclination": 97.2806,
        "meta_ra_of_asc_node": 117.9276,
        "meta_arg_of_pericenter": 148.5727,
        "meta_mean_anomaly": 211.6232,
        "meta_ephemeris_type": 0,
        "meta_classification_type": "U",
        "meta_norad_cat_id": 41026,
        "meta_element_set_no": 999,
        "meta_rev_at_epoch": 56121,
        "meta_bstar": 0.00061740694,
        "meta_mean_motion_dot": 0.0001501,
        "meta_mean_motion_ddot": 0,
        "tle_line1": "1 41026U 15064A   25339.94205350  .00015010  00000+0  61741-3 0  9997",
        "tle_line2": "2 41026  97.2806 117.9276 0012026 148.5727 211.6232 15.24177586561213"
      },
      "geometry": {
        "type": "Point",
        "coordinates": [
          106.82593514593233,
          57.59994411843981
        ]
      }
    },
    {
      "type": "Feature",
      "properties": {
        "norad_id": 41038,
        "name": "YAOGAN-29",
        "group": "resource",
        "lat": 6.198285390957806,
        "lon": 2.7517332729501045,
        "alt_km": 622.0632710188229,
        "timestamp": "2025-12-06T11:28:10.686488+00:00",
        "meta_object_name": "YAOGAN-29",
        "meta_object_id": "2015-069A",
        "meta_epoch": "2025-12-05T22:29:08.706048",
        "meta_mean_motion": 14.82870877,
        "meta_eccentricity": 5.613e-05,
        "meta_inclination": 98.0224,
        "meta_ra_of_asc_node": 3.0866,
        "meta_arg_of_pericenter": 358.8056,
        "meta_mean_anomaly": 1.3156,
        "meta_ephemeris_type": 0,
        "meta_classification_type": "U",
        "meta_norad_cat_id": 41038,
        "meta_element_set_no": 999,
        "meta_rev_at_epoch": 54198,
        "meta_bstar": 0.00011740289,
        "meta_mean_motion_dot": 8.97e-06,
        "meta_mean_motion_ddot": 0,
        "tle_line1": "1 41038U 15069A   25339.93690632  .00000897  00000+0  11740-3 0  9996",
        "tle_line2": "2 41038  98.0224   3.0866 0000561 358.8056   1.3156 14.82870877541988"
      },
      "geometry": {
        "type": "Point",
        "coordinates": [
          2.7517332729501045,
          6.198285390957806
        ]
      }
    },
    {
      "type": "Feature",
      "properties": {
        "norad_id": 41167,
        "name": "KENT RIDGE 1",
        "group": "resource",
        "lat": -3.1909785642294017,
        "lon": -114.41970034136251,
        "alt_km": 495.3209014186441,
        "timestamp": "2025-12-06T11:28:10.686498+00:00",
        "meta_object_name": "KENT RIDGE 1",
        "meta_object_id": "2015-077B",
        "meta_epoch": "2025-12-05T10:21:04.162752",
        "meta_mean_motion": 15.2154754,
        "meta_eccentricity": 0.00086096,
        "meta_inclination": 14.9801,
        "meta_ra_of_asc_node": 265.3698,
        "meta_arg_of_pericenter": 27.2296,
        "meta_mean_anomaly": 332.8476,
        "meta_ephemeris_type": 0,
        "meta_classification_type": "U",
        "meta_norad_cat_id": 41167,
        "meta_element_set_no": 999,
        "meta_rev_at_epoch": 55152,
        "meta_bstar": 0.00031192273,
        "meta_mean_motion_dot": 8.012e-05,
        "meta_mean_motion_ddot": 0,
        "tle_line1": "1 41167U 15077B   25339.43129818  .00008012  00000+0  31192-3 0  9996",
        "tle_line2": "2 41167  14.9801 265.3698 0008609  27.2296 332.8476 15.21547540551529"
      },
      "geometry": {
        "type": "Point",
        "coordinates": [
          -114.41970034136251,
          -3.1909785642294017
        ]
      }
    },
    {
      "type": "Feature",
      "properties": {
        "norad_id": 41194,
        "name": "GAOFEN-4",
        "group": "resource",
        "lat": -0.14254137069962766,
        "lon": -6.737384491282366,
        "alt_km": 35800.881441630634,
        "timestamp": "2025-12-06T11:28:10.686512+00:00",
        "meta_object_name": "GAOFEN-4",
        "meta_object_id": "2015-083A",
        "meta_epoch": "2025-12-05T21:51:38.700576",
        "meta_mean_motion": 1.00272405,
        "meta_eccentricity": 0.00036442,
        "meta_inclination": 0.1521,
        "meta_ra_of_asc_node": 80.9122,
        "meta_arg_of_pericenter": 105.772,
        "meta_mean_anomaly": 321.8871,
        "meta_ephemeris_type": 0,
        "meta_classification_type": "U",
        "meta_norad_cat_id": 41194,
        "meta_element_set_no": 999,
        "meta_rev_at_epoch": 3659,
        "meta_bstar": 0,
        "meta_mean_motion_dot": -3.26e-06,
        "meta_mean_motion_ddot": 0,
        "tle_line1": "1 41194U 15083A   25339.91086459 -.00000326  00000+0  00000+0 0  9990",
        "tle_line2": "2 41194   0.1521  80.9122 0003644 105.7720 321.8871  1.00272405 36595"
      },
      "geometry": {
        "type": "Point",
        "coordinates": [
          -6.737384491282366,
          -0.14254137069962766
        ]
      }
    },
    {
      "type": "Feature",
      "properties": {
        "norad_id": 41240,
        "name": "JASON-3",
        "group": "resource",
        "lat": 65.93821189062781,
        "lon": -104.24443402730137,
        "alt_km": 1309.1415122866701,
        "timestamp": "2025-12-06T11:28:10.686523+00:00",
        "meta_object_name": "JASON-3",
        "meta_object_id": "2016-002A",
        "meta_epoch": "2025-12-05T21:57:58.331808",
        "meta_mean_motion": 12.87626238,
        "meta_eccentricity": 0.00071329,
        "meta_inclination": 66.0391,
        "meta_ra_of_asc_node": 172.1723,
        "meta_arg_of_pericenter": 270.3827,
        "meta_mean_anomaly": 89.6374,
        "meta_ephemeris_type": 0,
        "meta_classification_type": "U",
        "meta_norad_cat_id": 41240,
        "meta_element_set_no": 999,
        "meta_rev_at_epoch": 46236,
        "meta_bstar": 0.0001830301,
        "meta_mean_motion_dot": -1.6e-07,
        "meta_mean_motion_ddot": 0,
        "tle_line1": "1 41240U 16002A   25339.91525847 -.00000016  00000+0  18303-3 0  9998",
        "tle_line2": "2 41240  66.0391 172.1723 0007132 270.3827  89.6374 12.87626238462366"
      },
      "geometry": {
        "type": "Point",
        "coordinates": [
          -104.24443402730137,
          65.93821189062781
        ]
      }
    },
    {
      "type": "Feature",
      "properties": {
        "norad_id": 41335,
        "name": "SENTINEL-3A",
        "group": "resource",
        "lat": -67.40043788709097,
        "lon": -155.79712462362767,
        "alt_km": 810.516183475368,
        "timestamp": "2025-12-06T11:28:10.686534+00:00",
        "meta_object_name": "SENTINEL-3A",
        "meta_object_id": "2016-011A",
        "meta_epoch": "2025-12-05T22:31:27.854112",
        "meta_mean_motion": 14.26742549,
        "meta_eccentricity": 9.736e-05,
        "meta_inclination": 98.6216,
        "meta_ra_of_asc_node": 45.0477,
        "meta_arg_of_pericenter": 91.9298,
        "meta_mean_anomaly": 268.1993,
        "meta_ephemeris_type": 0,
        "meta_classification_type": "U",
        "meta_norad_cat_id": 41335,
        "meta_element_set_no": 999,
        "meta_rev_at_epoch": 51050,
        "meta_bstar": 0.00014120481,
        "meta_mean_motion_dot": 2.98e-06,
        "meta_mean_motion_ddot": 0,
        "tle_line1": "1 41335U 16011A   25339.93851683  .00000298  00000+0  14120-3 0  9999",
        "tle_line2": "2 41335  98.6216  45.0477 0000973  91.9298 268.1993 14.26742549510507"
      },
      "geometry": {
        "type": "Point",
        "coordinates": [
          -155.79712462362767,
          -67.40043788709097
        ]
      }
    }
  ]
}